SL-14 R/B               
1 16792U 86046B   25359.91701363  .00000583  00000+0  64371-4 0  9993
2 16792  82.4818 149.8693 0024545 110.6860 249.6991 14.85498722115456
SL-14 R/B               
1 16882U 86055B   25360.05986052  .00000482  00000+0  52904-4 0  9997
2 16882  82.5193 195.8561 0018078 212.1321 264.2999 14.85543069108438
AJISAI (EGS)            
1 16908U 86061A   25360.29693025 -.00000085  00000+0  84912-4 0  9998
2 16908  50.0112 319.0301 0011316  99.9232 248.7287 12.44514435458859
COSMOS 1812             
1 17295U 87003A   25360.24732157  .00111322  00000+0  64066-3 0  9993
2 17295  82.4869 277.3663 0006128  67.8935 292.2982 15.78351656132784
SL-14 R/B               
1 17567U 87024B   25360.17918401  .00000607  00000+0  66462-4 0  9994
2 17567  82.5278 161.8291 0019205 140.6668 219.5948 14.86037814 77213
COSMOS 1833             
1 17589U 87027A   25359.74332366  .00000299  00000+0  18551-3 0  9994
2 17589  70.9163 121.4419 0023110 313.5717  46.3484 14.13028539999860
SL-16 R/B               
1 17590U 87027B   25360.21361451 -.00000115  00000+0 -33360-4 0  9992
2 17590  71.0038  71.3270 0007202 245.6794 114.3579 14.17156544  4935
SL-14 R/B               
1 17912U 87038B   25360.27107223  .00000527  00000+0  58331-4 0  9993
2 17912  82.5011   5.9547 0020536  50.4470 309.8556 14.85273570 68333
COSMOS 1844             
1 17973U 87041A   25359.99801523  .00000341  00000+0  20191-3 0  9991
2 17973  70.8968 189.6068 0029516 136.1131 224.2343 14.14532085993165
SL-14 R/B               
1 18153U 87055B   25360.19321821  .00000522  00000+0  57448-4 0  9996
2 18153  82.4991  58.3093 0019197 255.4216 104.4872 14.85534596 59025
COSMOS 1867             
1 18187U 87060A   25359.80684471 -.00000016  00000+0  31544-4 0  9996
2 18187  65.0091 153.6090 0013674 272.3766  87.5753 14.31488147  9360
SL-14 R/B               
1 18749U 88001B   25360.18372222  .00000515  00000+0  56757-4 0  9993
2 18749  82.5133 264.5033 0019427 118.9293 241.3875 14.85437424 31110
