CCSDS_OMM_VERS = 2.0
CREATION_DATE  = 
ORIGINATOR     = 

OBJECT_NAME    = SL-14 R/B
OBJECT_ID      = 1986-046B
CENTER_NAME    = EARTH
REF_FRAME      = TEME
TIME_SYSTEM    = UTC
MEAN_ELEMENT_THEORY = SGP/SGP4

EPOCH          = 2025-12-25T22:00:29.977632
MEAN_MOTION    = 14.85498722
ECCENTRICITY   = .0024545
INCLINATION    = 82.4818
RA_OF_ASC_NODE = 149.8693
ARG_OF_PERICENTER = 110.6860
MEAN_ANOMALY   = 249.6991

EPHEMERIS_TYPE = 0
CLASSIFICATION_TYPE = U
NORAD_CAT_ID   = 16792
ELEMENT_SET_NO = 999
REV_AT_EPOCH   = 11545
BSTAR          = .64371E-4
MEAN_MOTION_DOT = .583E-5
MEAN_MOTION_DDOT = 0

CCSDS_OMM_VERS = 2.0
CREATION_DATE  = 
ORIGINATOR     = 

OBJECT_NAME    = SL-14 R/B
OBJECT_ID      = 1986-055B
CENTER_NAME    = EARTH
REF_FRAME      = TEME
TIME_SYSTEM    = UTC
MEAN_ELEMENT_THEORY = SGP/SGP4

EPOCH          = 2025-12-26T01:26:11.948928
MEAN_MOTION    = 14.85543069
ECCENTRICITY   = .00180783
INCLINATION    = 82.5193
RA_OF_ASC_NODE = 195.8561
ARG_OF_PERICENTER = 212.1321
MEAN_ANOMALY   = 264.2999

EPHEMERIS_TYPE = 0
CLASSIFICATION_TYPE = U
NORAD_CAT_ID   = 16882
ELEMENT_SET_NO = 999
REV_AT_EPOCH   = 10843
BSTAR          = .52903528E-4
MEAN_MOTION_DOT = .482E-5
MEAN_MOTION_DDOT = 0

CCSDS_OMM_VERS = 2.0
CREATION_DATE  = 
ORIGINATOR     = 

OBJECT_NAME    = AJISAI (EGS)
OBJECT_ID      = 1986-061A
CENTER_NAME    = EARTH
REF_FRAME      = TEME
TIME_SYSTEM    = UTC
MEAN_ELEMENT_THEORY = SGP/SGP4

EPOCH          = 2025-12-26T07:07:34.773600
MEAN_MOTION    = 12.44514435
ECCENTRICITY   = .00113163
INCLINATION    = 50.0112
RA_OF_ASC_NODE = 319.0301
ARG_OF_PERICENTER = 99.9232
MEAN_ANOMALY   = 248.7287

EPHEMERIS_TYPE = 0
CLASSIFICATION_TYPE = U
NORAD_CAT_ID   = 16908
ELEMENT_SET_NO = 999
REV_AT_EPOCH   = 45885
BSTAR          = .84912451E-4
MEAN_MOTION_DOT = -.85E-6
MEAN_MOTION_DDOT = 0

CCSDS_OMM_VERS = 2.0
CREATION_DATE  = 
ORIGINATOR     = 

OBJECT_NAME    = COSMOS 1812
OBJECT_ID      = 1987-003A
CENTER_NAME    = EARTH
REF_FRAME      = TEME
TIME_SYSTEM    = UTC
MEAN_ELEMENT_THEORY = SGP/SGP4

EPOCH          = 2025-12-26T05:56:08.583648
MEAN_MOTION    = 15.78351656
ECCENTRICITY   = .00061284
INCLINATION    = 82.4869
RA_OF_ASC_NODE = 277.3663
ARG_OF_PERICENTER = 67.8935
MEAN_ANOMALY   = 292.2982

EPHEMERIS_TYPE = 0
CLASSIFICATION_TYPE = U
NORAD_CAT_ID   = 17295
ELEMENT_SET_NO = 999
REV_AT_EPOCH   = 13278
BSTAR          = .64065844E-3
MEAN_MOTION_DOT = .111322E-2
MEAN_MOTION_DDOT = 0

CCSDS_OMM_VERS = 2.0
CREATION_DATE  = 
ORIGINATOR     = 

OBJECT_NAME    = SL-14 R/B
OBJECT_ID      = 1987-024B
CENTER_NAME    = EARTH
REF_FRAME      = TEME
TIME_SYSTEM    = UTC
MEAN_ELEMENT_THEORY = SGP/SGP4

EPOCH          = 2025-12-26T04:18:01.498464
MEAN_MOTION    = 14.86037814
ECCENTRICITY   = .00192055
INCLINATION    = 82.5278
RA_OF_ASC_NODE = 161.8291
ARG_OF_PERICENTER = 140.6668
MEAN_ANOMALY   = 219.5948

EPHEMERIS_TYPE = 0
CLASSIFICATION_TYPE = U
NORAD_CAT_ID   = 17567
ELEMENT_SET_NO = 999
REV_AT_EPOCH   = 7721
BSTAR          = .66462028E-4
MEAN_MOTION_DOT = .607E-5
MEAN_MOTION_DDOT = 0

CCSDS_OMM_VERS = 2.0
CREATION_DATE  = 
ORIGINATOR     = 

OBJECT_NAME    = COSMOS 1833
OBJECT_ID      = 1987-027A
CENTER_NAME    = EARTH
REF_FRAME      = TEME
TIME_SYSTEM    = UTC
MEAN_ELEMENT_THEORY = SGP/SGP4

EPOCH          = 2025-12-25T17:50:23.164224
MEAN_MOTION    = 14.13028539
ECCENTRICITY   = .00231103
INCLINATION    = 70.9163
RA_OF_ASC_NODE = 121.4419
ARG_OF_PERICENTER = 313.5717
MEAN_ANOMALY   = 46.3484

EPHEMERIS_TYPE = 0
CLASSIFICATION_TYPE = U
NORAD_CAT_ID   = 17589
ELEMENT_SET_NO = 999
REV_AT_EPOCH   = 99986
BSTAR          = .18551195E-3
MEAN_MOTION_DOT = .299E-5
MEAN_MOTION_DDOT = 0

CCSDS_OMM_VERS = 2.0
CREATION_DATE  = 
ORIGINATOR     = 

OBJECT_NAME    = SL-16 R/B
OBJECT_ID      = 1987-027B
CENTER_NAME    = EARTH
REF_FRAME      = TEME
TIME_SYSTEM    = UTC
MEAN_ELEMENT_THEORY = SGP/SGP4

EPOCH          = 2025-12-26T05:07:36.293664
MEAN_MOTION    = 14.17156544
ECCENTRICITY   = .00072025
INCLINATION    = 71.0038
RA_OF_ASC_NODE = 71.3270
ARG_OF_PERICENTER = 245.6794
MEAN_ANOMALY   = 114.3579

EPHEMERIS_TYPE = 0
CLASSIFICATION_TYPE = U
NORAD_CAT_ID   = 17590
ELEMENT_SET_NO = 999
REV_AT_EPOCH   = 493
BSTAR          = -.33359613E-4
MEAN_MOTION_DOT = -.115E-5
MEAN_MOTION_DDOT = 0

CCSDS_OMM_VERS = 2.0
CREATION_DATE  = 
ORIGINATOR     = 

OBJECT_NAME    = SL-14 R/B
OBJECT_ID      = 1987-038B
CENTER_NAME    = EARTH
REF_FRAME      = TEME
TIME_SYSTEM    = UTC
MEAN_ELEMENT_THEORY = SGP/SGP4

EPOCH          = 2025-12-26T06:30:20.640672
MEAN_MOTION    = 14.85273570
ECCENTRICITY   = .00205365
INCLINATION    = 82.5011
RA_OF_ASC_NODE = 5.9547
ARG_OF_PERICENTER = 50.4470
MEAN_ANOMALY   = 309.8556

EPHEMERIS_TYPE = 0
CLASSIFICATION_TYPE = U
NORAD_CAT_ID   = 17912
ELEMENT_SET_NO = 999
REV_AT_EPOCH   = 6833
BSTAR          = .58330586E-4
MEAN_MOTION_DOT = .527E-5
MEAN_MOTION_DDOT = 0

CCSDS_OMM_VERS = 2.0
CREATION_DATE  = 
ORIGINATOR     = 

OBJECT_NAME    = COSMOS 1844
OBJECT_ID      = 1987-041A
CENTER_NAME    = EARTH
REF_FRAME      = TEME
TIME_SYSTEM    = UTC
MEAN_ELEMENT_THEORY = SGP/SGP4

EPOCH          = 2025-12-25T23:57:08.515872
MEAN_MOTION    = 14.14532085
ECCENTRICITY   = .00295164
INCLINATION    = 70.8968
RA_OF_ASC_NODE = 189.6068
ARG_OF_PERICENTER = 136.1131
MEAN_ANOMALY   = 224.2343

EPHEMERIS_TYPE = 0
CLASSIFICATION_TYPE = U
NORAD_CAT_ID   = 17973
ELEMENT_SET_NO = 999
REV_AT_EPOCH   = 99316
BSTAR          = .20190901E-3
MEAN_MOTION_DOT = .341E-5
MEAN_MOTION_DDOT = 0

CCSDS_OMM_VERS = 2.0
CREATION_DATE  = 
ORIGINATOR     = 

OBJECT_NAME    = SL-14 R/B
OBJECT_ID      = 1987-055B
CENTER_NAME    = EARTH
REF_FRAME      = TEME
TIME_SYSTEM    = UTC
MEAN_ELEMENT_THEORY = SGP/SGP4

EPOCH          = 2025-12-26T04:38:14.053344
MEAN_MOTION    = 14.85534596
ECCENTRICITY   = .00191976
INCLINATION    = 82.4991
RA_OF_ASC_NODE = 58.3093
ARG_OF_PERICENTER = 255.4216
MEAN_ANOMALY   = 104.4872

EPHEMERIS_TYPE = 0
CLASSIFICATION_TYPE = U
NORAD_CAT_ID   = 18153
ELEMENT_SET_NO = 999
REV_AT_EPOCH   = 5902
BSTAR          = .57447838E-4
MEAN_MOTION_DOT = .522E-5
MEAN_MOTION_DDOT = 0

CCSDS_OMM_VERS = 2.0
CREATION_DATE  = 
ORIGINATOR     = 

OBJECT_NAME    = COSMOS 1867
OBJECT_ID      = 1987-060A
CENTER_NAME    = EARTH
REF_FRAME      = TEME
TIME_SYSTEM    = UTC
MEAN_ELEMENT_THEORY = SGP/SGP4

EPOCH          = 2025-12-25T19:21:51.382944
MEAN_MOTION    = 14.31488147
ECCENTRICITY   = .00136743
INCLINATION    = 65.0091
RA_OF_ASC_NODE = 153.6090
ARG_OF_PERICENTER = 272.3766
MEAN_ANOMALY   = 87.5753

EPHEMERIS_TYPE = 0
CLASSIFICATION_TYPE = U
NORAD_CAT_ID   = 18187
ELEMENT_SET_NO = 999
REV_AT_EPOCH   = 936
BSTAR          = .3154423E-4
MEAN_MOTION_DOT = -.16E-6
MEAN_MOTION_DDOT = 0

CCSDS_OMM_VERS = 2.0
CREATION_DATE  = 
ORIGINATOR     = 

OBJECT_NAME    = SL-14 R/B
OBJECT_ID      = 1988-001B
CENTER_NAME    = EARTH
REF_FRAME      = TEME
TIME_SYSTEM    = UTC
MEAN_ELEMENT_THEORY = SGP/SGP4

EPOCH          = 2025-12-26T04:24:33.599808
MEAN_MOTION    = 14.85437424
ECCENTRICITY   = .00194273
INCLINATION    = 82.5133
RA_OF_ASC_NODE = 264.5033
ARG_OF_PERICENTER = 118.9293
MEAN_ANOMALY   = 241.3875

EPHEMERIS_TYPE = 0
CLASSIFICATION_TYPE = U
NORAD_CAT_ID   = 18749
ELEMENT_SET_NO = 999
REV_AT_EPOCH   = 3111
BSTAR          = .56756878E-4
MEAN_MOTION_DOT = .515E-5
MEAN_MOTION_DDOT = 0

